OBJECT_NAME,OBJECT_ID,EPOCH,MEAN_MOTION,ECCENTRICITY,INCLINATION,RA_OF_ASC_NODE,ARG_OF_PERICENTER,MEAN_ANOMALY,EPHEMERIS_TYPE,CLASSIFICATION_TYPE,NORAD_CAT_ID,ELEMENT_SET_NO,REV_AT_EPOCH,BSTAR,MEAN_MOTION_DOT,MEAN_MOTION_DDOT
STARLINK-1265,2020-019AY,2024-11-28T13:20:53.585664,15.06430659,.0001418,53.0548,69.1702,101.5514,258.5634,0,U,45406,999,25960,.2046E-2,.30351E-3,0
STARLINK-1275,2020-019AZ,2024-11-28T15:13:12.809856,15.41958151,.0004233,53.0534,30.9348,334.3615,25.7179,0,U,45407,999,26015,.11476E-2,.49528E-3,0
STARLINK-1278,2020-019BA,2024-11-28T18:45:59.344704,15.06419204,.0001221,53.0524,98.1595,97.2343,262.8785,0,U,45408,999,25922,.55098E-3,.7939E-4,0
STARLINK-1282,2020-019BB,2024-11-28T17:03:50.352480,15.06418508,.0001309,53.0545,68.4763,94.9406,265.1733,0,U,45409,999,25963,.74139E-3,.10784E-3,0
STARLINK-1293,2020-019BD,2024-11-28T19:00:36.594144,15.06395638,.0002281,53.0544,68.1114,70.5409,289.5827,0,U,45411,999,25966,-.10593E-3,-.1859E-4,0
STARLINK-1296,2020-019BE,2024-11-28T18:12:48.267936,15.06466923,.0001695,53.0547,68.2636,91.3351,268.7832,0,U,45412,999,25963,.18739E-2,.27791E-3,0
STARLINK-1298,2020-019BF,2024-11-28T18:55:19.137216,15.06420660,.0002251,53.0551,68.1270,67.7255,292.3972,0,U,45413,999,25973,.14192E-2,.20933E-3,0
STARLINK-1309,2020-019BG,2024-11-28T16:58:31.486368,15.06425569,.0001503,53.0556,68.4922,88.4838,271.6323,0,U,45414,999,25961,.1021E-2,.14969E-3,0
STARLINK-1316,2020-019BH,2024-11-28T12:49:02.778816,15.06429669,.0001538,53.0531,69.2708,111.7603,248.3550,0,U,45415,999,25962,.21072E-2,.3127E-3,0
STARLINK-1318,2020-019BJ,2024-11-28T18:23:24.844128,15.06426493,.0001967,53.0572,68.2282,109.6708,250.4493,0,U,45416,999,25964,-.26873E-3,-.4285E-4,0
STARLINK-1286,2020-019BK,2024-11-28T18:30:06.398496,15.06385430,.0001465,53.0527,98.2047,94.6435,265.4722,0,U,45417,999,25949,-.19098E-3,-.3124E-4,0
STARLINK-1308,2020-019BM,2024-11-28T18:24:46.810944,15.06409372,.0001472,53.0535,98.2225,92.8603,267.2554,0,U,45419,999,25924,.59078E-3,.8531E-4,0
ONEWEB-0066,2020-020A,2024-11-29T04:03:29.835648,13.11415467,.0001702,87.8888,133.6420,80.0251,280.1069,0,U,45424,999,22863,-.15492E-2,-.536E-5,0
ONEWEB-0067,2020-020B,2024-11-28T23:27:49.668480,13.11415410,.0001681,87.8872,133.6217,87.7294,272.4026,0,U,45425,999,22866,.1627E-2,.589E-5,0
ONEWEB-0080,2020-020C,2024-11-28T16:25:15.248928,13.11413562,.0001201,87.8901,133.7411,79.6487,280.4776,0,U,45426,999,22858,.1158E-2,.423E-5,0
ONEWEB-0090,2020-020D,2024-11-28T20:29:24.174528,13.11417352,.0001437,87.8888,133.6977,93.6466,266.4826,0,U,45427,999,22857,-.89678E-3,-.305E-5,0
ONEWEB-0061,2020-020E,2024-11-28T17:35:51.494496,13.11417728,.0001458,87.8892,133.7128,90.3115,269.8180,0,U,45428,999,22851,.51293E-3,.194E-5,0
ONEWEB-0081,2020-020F,2024-11-28T20:48:54.606816,13.11416024,.0001681,87.8881,133.7046,88.3373,271.7947,0,U,45429,999,22864,-.21597E-2,-.753E-5,0
ONEWEB-0069,2020-020G,2024-11-28T20:34:16.033728,13.11414005,.0001353,87.8884,133.6968,94.0919,266.0363,0,U,45430,999,22857,-.12919E-2,-.445E-5,0
ONEWEB-0031,2020-020H,2024-11-28T18:02:55.395456,13.11415472,.0001423,87.8891,133.7353,95.3125,264.8165,0,U,45431,999,22854,.13813E-2,.502E-5,0
ONEWEB-0027,2020-020J,2024-11-29T02:43:53.295456,13.17651520,.0001318,87.9085,118.4205,110.0157,250.1117,0,U,45432,999,23194,.11876E-3,.59E-6,0
ONEWEB-0064,2020-020K,2024-11-28T21:40:13.319616,13.11416949,.0001256,87.8900,133.7075,96.5514,263.5757,0,U,45433,999,22859,.1721E-2,.623E-5,0
ONEWEB-0018,2020-020L,2024-11-29T03:56:10.540896,13.11414375,.0001401,87.8892,133.6442,89.9263,270.2025,0,U,45434,999,22858,-.123E-2,-.423E-5,0
ONEWEB-0083,2020-020M,2024-11-29T03:41:32.274528,13.11414152,.0001398,87.8885,133.6286,95.4376,264.6911,0,U,45435,999,22862,.12978E-3,.59E-6,0
ONEWEB-0095,2020-020N,2024-11-29T03:29:32.775936,13.11414165,.0001765,87.8889,133.6612,122.3685,237.7614,0,U,45436,999,22862,.48751E-3,.185E-5,0
ONEWEB-0092,2020-020P,2024-11-28T17:40:12.559008,13.11497873,.0001625,87.8885,133.7287,101.7097,258.4214,0,U,45437,999,22867,.8569E-3,.317E-5,0
ONEWEB-0085,2020-020Q,2024-11-28T20:12:18.514080,13.11412143,.0001496,87.8875,133.7152,90.5710,269.5589,0,U,45438,999,22857,.77021E-3,.286E-5,0
ONEWEB-0096,2020-020R,2024-11-29T03:43:58.679328,13.11413973,.0001568,87.8886,133.6214,85.2841,274.8465,0,U,45439,999,22861,-.15566E-3,-.42E-6,0
ONEWEB-0037,2020-020S,2024-11-28T19:57:40.931136,13.11415923,.0001551,87.8888,133.6600,97.5786,262.5518,0,U,45440,999,22859,.15618E-2,.566E-5,0
ONEWEB-0042,2020-020T,2024-11-28T20:09:40.086720,13.11414679,.0001476,87.8883,133.6964,91.6905,268.4392,0,U,45441,999,22856,.11727E-2,.428E-5,0
