STARLINK-1265           
1 45406U 20019AY  24333.55617576  .00030351  00000+0  20460-2 0  9993
2 45406  53.0548  69.1702 0001418 101.5514 258.5634 15.06430659259606
STARLINK-1275           
1 45407U 20019AZ  24333.63417604  .00049528  00000+0  11476-2 0  9996
2 45407  53.0534  30.9348 0004233 334.3615  25.7179 15.41958151260151
STARLINK-1278           
1 45408U 20019BA  24333.78193686  .00007939  00000+0  55098-3 0  9993
2 45408  53.0524  98.1595 0001221  97.2343 262.8785 15.06419204259223
STARLINK-1282           
1 45409U 20019BB  24333.71099945  .00010784  00000+0  74139-3 0  9999
2 45409  53.0545  68.4763 0001309  94.9406 265.1733 15.06418508259635
STARLINK-1293           
1 45411U 20019BD  24333.79209021 -.00001859  00000+0 -10593-3 0  9997
2 45411  53.0544  68.1114 0002281  70.5409 289.5827 15.06395638259662
STARLINK-1296           
1 45412U 20019BE  24333.75889199  .00027791  00000+0  18739-2 0  9994
2 45412  53.0547  68.2636 0001695  91.3351 268.7832 15.06466923259639
STARLINK-1298           
1 45413U 20019BF  24333.78841594  .00020933  00000+0  14192-2 0  9995
2 45413  53.0551  68.1270 0002251  67.7255 292.3972 15.06420660259734
STARLINK-1309           
1 45414U 20019BG  24333.70730887  .00014969  00000+0  10210-2 0  9999
2 45414  53.0556  68.4922 0001503  88.4838 271.6323 15.06425569259613
STARLINK-1316           
1 45415U 20019BH  24333.53405994  .00031270  00000+0  21072-2 0  9991
2 45415  53.0531  69.2708 0001538 111.7603 248.3550 15.06429669259625
STARLINK-1318           
1 45416U 20019BJ  24333.76625977 -.00004285  00000+0 -26873-3 0  9995
2 45416  53.0572  68.2282 0001967 109.6708 250.4493 15.06426493259649
STARLINK-1286           
1 45417U 20019BK  24333.77090739 -.00003124  00000+0 -19098-3 0  9991
2 45417  53.0527  98.2047 0001465  94.6435 265.4722 15.06385430259494
STARLINK-1308           
1 45419U 20019BM  24333.76720846  .00008531  00000+0  59078-3 0  9998
2 45419  53.0535  98.2225 0001472  92.8603 267.2554 15.06409372259246
ONEWEB-0066             
1 45424U 20020A   24334.16909532 -.00000536  00000+0 -15492-2 0  9992
2 45424  87.8888 133.6420 0001702  80.0251 280.1069 13.11415467228633
ONEWEB-0067             
1 45425U 20020B   24333.97765820  .00000589  00000+0  16270-2 0  9992
2 45425  87.8872 133.6217 0001681  87.7294 272.4026 13.11415410228666
ONEWEB-0080             
1 45426U 20020C   24333.68420427  .00000423  00000+0  11580-2 0  9998
2 45426  87.8901 133.7411 0001201  79.6487 280.4776 13.11413562228587
ONEWEB-0090             
1 45427U 20020D   24333.85375202 -.00000305  00000+0 -89678-3 0  9993
2 45427  87.8888 133.6977 0001437  93.6466 266.4826 13.11417352228572
ONEWEB-0061             
1 45428U 20020E   24333.73323489  .00000194  00000+0  51293-3 0  9997
2 45428  87.8892 133.7128 0001458  90.3115 269.8180 13.11417728228516
ONEWEB-0081             
1 45429U 20020F   24333.86729869 -.00000753  00000+0 -21597-2 0  9990
2 45429  87.8881 133.7046 0001681  88.3373 271.7947 13.11416024228640
ONEWEB-0069             
1 45430U 20020G   24333.85713002 -.00000445  00000+0 -12919-2 0  9999
2 45430  87.8884 133.6968 0001353  94.0919 266.0363 13.11414005228571
ONEWEB-0031             
1 45431U 20020H   24333.75203004  .00000502  00000+0  13813-2 0  9991
2 45431  87.8891 133.7353 0001423  95.3125 264.8165 13.11415472228542
ONEWEB-0027             
1 45432U 20020J   24334.11381129  .00000059  00000+0  11876-3 0  9993
2 45432  87.9085 118.4205 0001318 110.0157 250.1117 13.17651520231943
ONEWEB-0064             
1 45433U 20020K   24333.90293194  .00000623  00000+0  17210-2 0  9998
2 45433  87.8900 133.7075 0001256  96.5514 263.5757 13.11416949228593
ONEWEB-0018             
1 45434U 20020L   24334.16401089 -.00000423  00000+0 -12300-2 0  9997
2 45434  87.8892 133.6442 0001401  89.9263 270.2025 13.11414375228583
ONEWEB-0083             
1 45435U 20020M   24334.15384577  .00000059  00000+0  12978-3 0  9994
2 45435  87.8885 133.6286 0001398  95.4376 264.6911 13.11414152228623
ONEWEB-0095             
1 45436U 20020N   24334.14551824  .00000185  00000+0  48751-3 0  9993
2 45436  87.8889 133.6612 0001765 122.3685 237.7614 13.11414165228627
ONEWEB-0092             
1 45437U 20020P   24333.73625647  .00000317  00000+0  85690-3 0  9993
2 45437  87.8885 133.7287 0001625 101.7097 258.4214 13.11497873228674
ONEWEB-0085             
1 45438U 20020Q   24333.84188095  .00000286  00000+0  77021-3 0  9991
2 45438  87.8875 133.7152 0001496  90.5710 269.5589 13.11412143228572
ONEWEB-0096             
1 45439U 20020R   24334.15554027 -.00000042  00000+0 -15566-3 0  9997
2 45439  87.8886 133.6214 0001568  85.2841 274.8465 13.11413973228618
ONEWEB-0037             
1 45440U 20020S   24333.83172374  .00000566  00000+0  15618-2 0  9990
2 45440  87.8888 133.6600 0001551  97.5786 262.5518 13.11415923228594
ONEWEB-0042             
1 45441U 20020T   24333.84004730  .00000428  00000+0  11727-2 0  9996
2 45441  87.8883 133.6964 0001476  91.6905 268.4392 13.11414679228566
